{"type": "FeatureCollection", "features": [{"type": "Feature", "properties": {"norad_id": 25590, "name": "COSMOS 2361", "group": "musson", "lat": 27.131348603102193, "lon": 164.73002987745042, "alt_km": 1001.1051388233363, "timestamp": "2025-12-06T22:38:42.998157+00:00", "meta": {"OBJECT_NAME": "COSMOS 2361", "OBJECT_ID": "1998-076A", "EPOCH": "2025-12-06T13:43:23.646144", "MEAN_MOTION": 13.73216489, "ECCENTRICITY": 0.00300945, "INCLINATION": 82.9339, "RA_OF_ASC_NODE": 348.6488, "ARG_OF_PERICENTER": 283.5188, "MEAN_ANOMALY": 192.5411, "EPHEMERIS_TYPE": 0, "CLASSIFICATION_TYPE": "U", "NORAD_CAT_ID": 25590, "ELEMENT_SET_NO": 999, "REV_AT_EPOCH": 35026, "BSTAR": 8.701482e-05, "MEAN_MOTION_DOT": 9.6e-07, "MEAN_MOTION_DDOT": 0}, "tle": {"line1": "1 25590U 98076A   25340.57180146  .00000096  00000+0  87015-4 0  9996", "line2": "2 25590  82.9339 348.6488 0030094 283.5188 192.5411 13.73216489350262"}}, "geometry": {"type": "Point", "coordinates": [164.73002987745042, 27.131348603102193]}}, {"type": "Feature", "properties": {"norad_id": 26818, "name": "COSMOS 2378", "group": "musson", "lat": -25.96694906631217, "lon": -172.51073678564237, "alt_km": 967.5554036808808, "timestamp": "2025-12-06T22:38:42.998179+00:00", "meta": {"OBJECT_NAME": "COSMOS 2378", "OBJECT_ID": "2001-023A", "EPOCH": "2025-12-06T15:14:03.854976", "MEAN_MOTION": 13.74141306, "ECCENTRICITY": 0.00320734, "INCLINATION": 82.9276, "RA_OF_ASC_NODE": 4.2519, "ARG_OF_PERICENTER": 222.2398, "MEAN_ANOMALY": 257.2518, "EPHEMERIS_TYPE": 0, "CLASSIFICATION_TYPE": "U", "NORAD_CAT_ID": 26818, "ELEMENT_SET_NO": 999, "REV_AT_EPOCH": 22839, "BSTAR": 8.3109267e-05, "MEAN_MOTION_DOT": 9.3e-07, "MEAN_MOTION_DDOT": 0}, "tle": {"line1": "1 26818U 01023A   25340.63476684  .00000093  00000+0  83109-4 0  9995", "line2": "2 26818  82.9276   4.2519 0032073 222.2398 257.2518 13.74141306228399"}}, "geometry": {"type": "Point", "coordinates": [-172.51073678564237, -25.96694906631217]}}, {"type": "Feature", "properties": {"norad_id": 27436, "name": "COSMOS 2389", "group": "musson", "lat": 31.253744884434415, "lon": -44.41657654537192, "alt_km": 954.3384131737303, "timestamp": "2025-12-06T22:38:42.998193+00:00", "meta": {"OBJECT_NAME": "COSMOS 2389", "OBJECT_ID": "2002-026A", "EPOCH": "2025-12-06T09:15:22.243968", "MEAN_MOTION": 13.75153681, "ECCENTRICITY": 0.00477458, "INCLINATION": 82.9496, "RA_OF_ASC_NODE": 311.689, "ARG_OF_PERICENTER": 78.0104, "MEAN_ANOMALY": 73.7342, "EPHEMERIS_TYPE": 0, "CLASSIFICATION_TYPE": "U", "NORAD_CAT_ID": 27436, "ELEMENT_SET_NO": 999, "REV_AT_EPOCH": 18061, "BSTAR": 8.7007497e-05, "MEAN_MOTION_DOT": 1e-06, "MEAN_MOTION_DDOT": 0}, "tle": {"line1": "1 27436U 02026A   25340.38567412  .00000100  00000+0  87007-4 0  9998", "line2": "2 27436  82.9496 311.6890 0047745  78.0104  73.7342 13.75153681180619"}}, "geometry": {"type": "Point", "coordinates": [-44.41657654537192, 31.253744884434415]}}, {"type": "Feature", "properties": {"norad_id": 27818, "name": "COSMOS 2398", "group": "musson", "lat": 41.52906571455769, "lon": -76.73652419462611, "alt_km": 985.6245015552558, "timestamp": "2025-12-06T22:38:42.998205+00:00", "meta": {"OBJECT_NAME": "COSMOS 2398", "OBJECT_ID": "2003-023A", "EPOCH": "2025-12-06T14:31:56.142624", "MEAN_MOTION": 13.72384745, "ECCENTRICITY": 0.00323483, "INCLINATION": 82.9479, "RA_OF_ASC_NODE": 277.2188, "ARG_OF_PERICENTER": 128.2558, "MEAN_ANOMALY": 44.9235, "EPHEMERIS_TYPE": 0, "CLASSIFICATION_TYPE": "U", "NORAD_CAT_ID": 27818, "ELEMENT_SET_NO": 999, "REV_AT_EPOCH": 12732, "BSTAR": 7.6676922e-05, "MEAN_MOTION_DOT": 8.6e-07, "MEAN_MOTION_DDOT": 0}, "tle": {"line1": "1 27818U 03023A   25340.60551091  .00000086  00000+0  76677-4 0  9995", "line2": "2 27818  82.9479 277.2188 0032348 128.2558  44.9235 13.72384745127329"}}, "geometry": {"type": "Point", "coordinates": [-76.73652419462611, 41.52906571455769]}}, {"type": "Feature", "properties": {"norad_id": 28380, "name": "COSMOS 2407", "group": "musson", "lat": 23.003084005445995, "lon": 34.177384837380366, "alt_km": 974.4101465691701, "timestamp": "2025-12-06T22:38:42.998215+00:00", "meta": {"OBJECT_NAME": "COSMOS 2407", "OBJECT_ID": "2004-028A", "EPOCH": "2025-12-06T15:12:05.425632", "MEAN_MOTION": 13.76312627, "ECCENTRICITY": 0.00404804, "INCLINATION": 82.9614, "RA_OF_ASC_NODE": 217.4135, "ARG_OF_PERICENTER": 71.4014, "MEAN_ANOMALY": 348.9699, "EPHEMERIS_TYPE": 0, "CLASSIFICATION_TYPE": "U", "NORAD_CAT_ID": 28380, "ELEMENT_SET_NO": 999, "REV_AT_EPOCH": 7339, "BSTAR": 0.00010274243, "MEAN_MOTION_DOT": 1.16e-06, "MEAN_MOTION_DDOT": 0}, "tle": {"line1": "1 28380U 04028A   25340.63339613  .00000116  00000+0  10274-3 0  9997", "line2": "2 28380  82.9614 217.4135 0040480  71.4014 348.9699 13.76312627 73397"}}, "geometry": {"type": "Point", "coordinates": [34.177384837380366, 23.003084005445995]}}, {"type": "Feature", "properties": {"norad_id": 28521, "name": "COSMOS 2414", "group": "musson", "lat": 1.5054054031633881, "lon": 8.856360078259595, "alt_km": 911.2865785719141, "timestamp": "2025-12-06T22:38:42.998226+00:00", "meta": {"OBJECT_NAME": "COSMOS 2414", "OBJECT_ID": "2005-002A", "EPOCH": "2025-12-06T14:52:09.987456", "MEAN_MOTION": 13.87901802, "ECCENTRICITY": 0.00405247, "INCLINATION": 82.9498, "RA_OF_ASC_NODE": 189.2877, "ARG_OF_PERICENTER": 156.887, "MEAN_ANOMALY": 203.4128, "EPHEMERIS_TYPE": 0, "CLASSIFICATION_TYPE": "U", "NORAD_CAT_ID": 28521, "ELEMENT_SET_NO": 999, "REV_AT_EPOCH": 5710, "BSTAR": 9.2152822e-05, "MEAN_MOTION_DOT": 1.26e-06, "MEAN_MOTION_DDOT": 0}, "tle": {"line1": "1 28521U 05002A   25340.61956004  .00000126  00000+0  92153-4 0  9992", "line2": "2 28521  82.9498 189.2877 0040524 156.8870 203.4128 13.87901802 57104"}}, "geometry": {"type": "Point", "coordinates": [8.856360078259595, 1.5054054031633881]}}, {"type": "Feature", "properties": {"norad_id": 32052, "name": "COSMOS 2429", "group": "musson", "lat": -37.85263924928316, "lon": 173.07696524895073, "alt_km": 1015.5363124888609, "timestamp": "2025-12-06T22:38:42.998237+00:00", "meta": {"OBJECT_NAME": "COSMOS 2429", "OBJECT_ID": "2007-038A", "EPOCH": "2025-12-06T07:37:13.123200", "MEAN_MOTION": 13.75148429, "ECCENTRICITY": 0.00395213, "INCLINATION": 82.9803, "RA_OF_ASC_NODE": 348.0437, "ARG_OF_PERICENTER": 55.3462, "MEAN_ANOMALY": 305.141, "EPHEMERIS_TYPE": 0, "CLASSIFICATION_TYPE": "U", "NORAD_CAT_ID": 32052, "ELEMENT_SET_NO": 999, "REV_AT_EPOCH": 91514, "BSTAR": 7.1111268e-05, "MEAN_MOTION_DOT": 8.4e-07, "MEAN_MOTION_DDOT": 0}, "tle": {"line1": "1 32052U 07038A   25340.31751300  .00000084  00000+0  71111-4 0  9990", "line2": "2 32052  82.9803 348.0437 0039521  55.3462 305.1410 13.75148429915146"}}, "geometry": {"type": "Point", "coordinates": [173.07696524895073, -37.85263924928316]}}, {"type": "Feature", "properties": {"norad_id": 35635, "name": "COSMOS 2454", "group": "musson", "lat": -6.484435468010132, "lon": -6.1560481245918455, "alt_km": 934.4645073504435, "timestamp": "2025-12-06T22:38:42.998247+00:00", "meta": {"OBJECT_NAME": "COSMOS 2454", "OBJECT_ID": "2009-039A", "EPOCH": "2025-12-06T15:09:08.424864", "MEAN_MOTION": 13.89927606, "ECCENTRICITY": 0.00204991, "INCLINATION": 82.9557, "RA_OF_ASC_NODE": 173.2754, "ARG_OF_PERICENTER": 90.0895, "MEAN_ANOMALY": 334.7919, "EPHEMERIS_TYPE": 0, "CLASSIFICATION_TYPE": "U", "NORAD_CAT_ID": 35635, "ELEMENT_SET_NO": 999, "REV_AT_EPOCH": 83065, "BSTAR": 8.5915832e-05, "MEAN_MOTION_DOT": 1.22e-06, "MEAN_MOTION_DDOT": 0}, "tle": {"line1": "1 35635U 09039A   25340.63134751  .00000122  00000+0  85916-4 0  9994", "line2": "2 35635  82.9557 173.2754 0020499  90.0895 334.7919 13.89927606830653"}}, "geometry": {"type": "Point", "coordinates": [-6.1560481245918455, -6.484435468010132]}}, {"type": "Feature", "properties": {"norad_id": 36519, "name": "COSMOS 2463", "group": "musson", "lat": -66.04833148004697, "lon": -132.88136892482828, "alt_km": 987.0759989048711, "timestamp": "2025-12-06T22:38:42.998258+00:00", "meta": {"OBJECT_NAME": "COSMOS 2463", "OBJECT_ID": "2010-017A", "EPOCH": "2025-12-06T15:02:37.660992", "MEAN_MOTION": 13.7164832, "ECCENTRICITY": 0.00349663, "INCLINATION": 82.9618, "RA_OF_ASC_NODE": 31.2045, "ARG_OF_PERICENTER": 305.6125, "MEAN_ANOMALY": 178.62, "EPHEMERIS_TYPE": 0, "CLASSIFICATION_TYPE": "U", "NORAD_CAT_ID": 36519, "ELEMENT_SET_NO": 999, "REV_AT_EPOCH": 78153, "BSTAR": 8.7401317e-05, "MEAN_MOTION_DOT": 9.4e-07, "MEAN_MOTION_DDOT": 0}, "tle": {"line1": "1 36519U 10017A   25340.62682478  .00000094  00000+0  87401-4 0  9996", "line2": "2 36519  82.9618  31.2045 0034966 305.6125 178.6200 13.71648320781538"}}, "geometry": {"type": "Point", "coordinates": [-132.88136892482828, -66.04833148004697]}}]}